ONEWEB-0207             
1 48242U 21031AJ  25131.88523476  .00000277  00000+0  71265-3 0  9991
2 48242  87.9069   9.5159 0002052  82.4158 277.7205 13.14502977195573
ONEWEB-0208             
1 48243U 21031AK  25131.71476261  .00000171  00000+0  42760-3 0  9994
2 48243  87.9070   9.5639 0001769  88.9639 271.1693 13.14503798195568
ONEWEB-0200             
1 48244U 21031AL  25131.90664529 -.00000126  00000+0 -37466-3 0  9991
2 48244  87.9068   9.5182 0001816  85.8801 274.2536 13.14502133195516
ONEWEB-0217             
1 48245U 21031AM  25131.92251509 -.00000100  00000+0 -30471-3 0  9995
2 48245  87.9067   9.4997 0001723  91.3658 268.7669 13.14503501195467
ONEWEB-0211             
1 48767U 21045A   25131.86109738  .00000112  00000+0  26155-3 0  9993
2 48767  87.9055 339.1465 0001482  92.5322 267.5978 13.16078033191655
ONEWEB-0223             
1 48768U 21045B   25131.83874458 -.00000088  00000+0 -26734-3 0  9996
2 48768  87.9057 339.1831 0001291  91.0980 269.0298 13.15548124191639
ONEWEB-0230             
1 48769U 21045C   25131.81020898  .00000094  00000+0  21571-3 0  9995
2 48769  87.9042 339.2381 0001802  82.5628 277.5707 13.15550491191894
ONEWEB-0237             
1 48770U 21045D   25131.79913419  .00000210  00000+0  52290-3 0  9996
2 48770  87.9065 339.2085 0001426  87.2614 272.8680 13.15547739191610
